     2.10           N: GPS NAV DATA                         RINEX VERSION / TYPE
teqc  2008Oct2      gpsops              20090109 00:09:34UTCPGM / RUN BY / DATE
Linux 2.4.20-8|Pentium IV|gcc -static|Linux|486/DX+         COMMENT
soc2rnx ver 1.20    gpsops               9-Jan-2009 00:09:26COMMENT
Forced Modulo Decimation to 30 seconds                      COMMENT
GLPS                                    MARKER NAME         COMMENT
42005M002                               MARKER NUMBER       COMMENT
-33801.4662 -6377516.5323 -82154.3508                       COMMENT
                                                            COMMENT
This data is provided as a public service by NASA/JPL.      COMMENT
No warranty is expressed or implied regarding suitability   COMMENT
for use.  For further information, contact:                 COMMENT
Dave Stowers, NASA/JPL m/s 238-600                          COMMENT
4800 Oak Grove Drive, Pasadena CA 91109 USA                 COMMENT
                                                            END OF HEADER
 5 09  1  8  2  0  0.0-5.089798942208D-04-6.286882126005D-11 0.000000000000D+00
    5.300000000000D+01-4.271875000000D+01 4.812343310558D-09-1.187769364550D+00
   -2.134591341019D-06 9.375660098158D-03 1.049041748047D-05 5.153640233994D+03
    3.528000000000D+05-2.607703208923D-08-7.925533952016D-02 2.812594175339D-07
    9.451425812336D-01 1.688437500000D+02 1.295063179231D+00-8.043906489564D-09
    5.346651280915D-10 1.000000000000D+00 1.513000000000D+03 0.000000000000D+00
    4.000000000000D+00 0.000000000000D+00-4.190951585770D-09 5.300000000000D+01
    3.456000000000D+05
 9 09  1  8  2  0  0.0 3.383774310350D-05 1.932676241267D-12 0.000000000000D+00
    5.500000000000D+01-1.370625000000D+02 4.095527738026D-09-8.449920448532D-02
   -7.141381502151D-06 2.013679232914D-02 7.774680852890D-06 5.153662784576D+03
    3.528000000000D+05-2.998858690262D-07-1.066663579985D+00 1.285225152969D-07
    9.744146737681D-01 2.378125000000D+02 1.455347693256D+00-8.273201754918D-09
   -9.571827276455D-11 1.000000000000D+00 1.513000000000D+03 0.000000000000D+00
    2.000000000000D+00 0.000000000000D+00-5.587935447693D-09 5.500000000000D+01
    3.456000000000D+05
12 09  1  8  1 59 44.0-3.274460323155D-04 3.183231456205D-12 0.000000000000D+00
    2.400000000000D+01-3.771875000000D+01 4.364467511876D-09 1.056755594249D+00
   -2.045184373856D-06 3.105254494585D-03 1.011230051517D-05 5.153742393494D+03
    3.527840000000D+05 5.774199962616D-08 1.925748055136D-02-5.587935447693D-09
    9.661227765601D-01 1.869687500000D+02-8.256057675313D-01-7.745322623776D-09
    5.710952169795D-10 1.000000000000D+00 1.513000000000D+03 0.000000000000D+00
    2.000000000000D+00 0.000000000000D+00-1.164153218269D-08 2.400000000000D+01
    3.456000000000D+05
14 09  1  8  2  0  0.0-1.712646335363D-04 5.115907697473D-12 0.000000000000D+00
    1.050000000000D+02-9.718750000000D+00 4.099813630837D-09 2.922676919648D+00
   -4.805624485016D-07 4.464995698072D-03-3.706663846970D-07 5.153562343597D+03
    3.528000000000D+05-1.676380634308D-08-2.044551094000D+00-3.911554813385D-08
    9.887824545067D-01 3.998125000000D+02-2.100426171867D+00-8.185698110040D-09
   -6.464554988949D-11 1.000000000000D+00 1.513000000000D+03 0.000000000000D+00
    2.800000000000D+00 0.000000000000D+00-9.313225746155D-09 1.050000000000D+02
    3.456000000000D+05
18 09  1  8  2  0  0.0-9.524635970592D-05 3.637978807092D-12 0.000000000000D+00
    9.100000000000D+01 1.587187500000D+02 4.724839665680D-09-1.342310896682D+00
    8.251518011093D-06 9.890953078866D-03 6.241723895073D-06 5.153755889893D+03
    3.528000000000D+05 2.421438694000D-07-3.094191939777D+00-4.284083843231D-08
    9.447915715955D-01 2.505000000000D+02-2.438329370365D+00-8.193198422458D-09
    1.303625729816D-10 1.000000000000D+00 1.513000000000D+03 0.000000000000D+00
    2.800000000000D+00 0.000000000000D+00-1.071020960808D-08 9.100000000000D+01
    3.456000000000D+05
21 09  1  8  2  0  0.0 3.488129004836D-05-1.705302565824D-12 0.000000000000D+00
    8.200000000000D+01 4.493750000000D+01 5.092712131902D-09-8.234471090202D-02
    2.386048436165D-06 1.452628464904D-02 9.803101420403D-06 5.153654420853D+03
    3.528000000000D+05 1.136213541031D-07 2.130832494046D+00 1.322478055954D-07
    9.345461725821D-01 1.770312500000D+02-2.656672101240D+00-8.333204254263D-09
   -5.775240561951D-10 1.000000000000D+00 1.513000000000D+03 0.000000000000D+00
    2.800000000000D+00 0.000000000000D+00-1.164153218269D-08 8.200000000000D+01
    3.456000000000D+05
22 09  1  8  2  0  0.0 2.069640904665D-04-6.821210263297D-13 0.000000000000D+00
    1.760000000000D+02 1.637812500000D+02 4.752697968947D-09-2.494744837005D+00
    8.406117558479D-06 4.965277970769D-03 6.461516022682D-06 5.153675828934D+03
    3.528000000000D+05 6.891787052155D-08-3.088201206856D+00-5.587935447693D-09
    9.424485122606D-01 2.446250000000D+02-1.813638821771D+00-8.164268645988D-09
    1.364342544629D-10 1.000000000000D+00 1.513000000000D+03 0.000000000000D+00
    4.000000000000D+00 0.000000000000D+00-1.816079020500D-08 1.760000000000D+02
    3.456000000000D+05
24 09  1  8  2  0  0.0 1.558386720717D-04 3.069544618484D-12 0.000000000000D+00
    1.880000000000D+02 5.134375000000D+01 4.648765068296D-09-1.458614896959D+00
    2.551823854446D-06 7.057519513182D-03 1.052021980286D-05 5.153669721603D+03
    3.528000000000D+05-1.005828380585D-07 2.160593779072D+00-1.620501279831D-07
    9.512149947226D-01 1.733750000000D+02-6.441316590119D-01-7.976046520067D-09
   -4.968064082668D-10 1.000000000000D+00 1.513000000000D+03 0.000000000000D+00
    2.800000000000D+00 0.000000000000D+00-1.396983861923D-09 1.880000000000D+02
    3.456000000000D+05
29 09  1  8  2  0  0.0-1.971051096916D-05 2.614797267597D-12 0.000000000000D+00
    9.100000000000D+01 2.406250000000D+00 4.948420407287D-09-1.359832825353D-02
    1.825392246246D-07 3.228373592719D-03 6.239861249924D-06 5.153750104904D+03
    3.528000000000D+05-5.587935447693D-08 1.085713342262D+00-2.235174179077D-08
    9.595133024376D-01 2.596875000000D+02-1.343150368816D+00-8.087836890870D-09
   -1.750072897561D-11 1.000000000000D+00 1.513000000000D+03 0.000000000000D+00
    2.000000000000D+00 0.000000000000D+00-8.847564458847D-09 9.100000000000D+01
    3.456000000000D+05
30 09  1  8  2  0  0.0 1.184460707009D-04 2.387423592154D-12 0.000000000000D+00
    6.200000000000D+01-3.762500000000D+01 4.595905723635D-09-1.722191699991D+00
   -1.870095729828D-06 1.116110431030D-02 1.032464206219D-05 5.153654207230D+03
    3.528000000000D+05 2.235174179077D-07-2.621747569738D-02 2.235174179077D-07
    9.510857005599D-01 1.728750000000D+02 1.414357452819D+00-7.764609141423D-09
    5.557374344091D-10 1.000000000000D+00 1.513000000000D+03 0.000000000000D+00
    4.000000000000D+00 0.000000000000D+00-7.916241884232D-09 6.200000000000D+01
    3.456000000000D+05
31 09  1  8  2  0  0.0-4.680175334215D-05-1.477928890381D-12 0.000000000000D+00
    1.100000000000D+02-1.622500000000D+02 4.035525238682D-09 7.780752080355D-01
   -8.506700396538D-06 7.104036281817D-03 7.098540663719D-06 5.153624767303D+03
    3.528000000000D+05-3.166496753693D-08-1.034407870417D+00-1.154839992523D-07
    9.708877699212D-01 2.511562500000D+02-1.212773907073D+00-8.001761876929D-09
   -1.403629895391D-10 1.000000000000D+00 1.513000000000D+03 0.000000000000D+00
    4.000000000000D+00 0.000000000000D+00-1.303851604462D-08 1.100000000000D+02
    3.456300000000D+05
 6 09  1  8  2  0  0.0 9.926548227668D-05-1.170974428533D-11 0.000000000000D+00
    2.700000000000D+01 7.218750000000D+00 5.559160132762D-09-1.425598442194D+00
    5.736947059631D-07 5.634472938254D-03 5.854293704033D-06 5.153699117661D+03
    3.528000000000D+05-3.166496753693D-08 1.018103031072D+00 1.210719347000D-07
    9.333680158957D-01 2.538437500000D+02-1.486967702013D+00-8.424636634217D-09
    1.296482575132D-10 1.000000000000D+00 1.513000000000D+03 0.000000000000D+00
    2.800000000000D+00 0.000000000000D+00-4.656612873077D-09 2.700000000000D+01
    3.462600000000D+05
14 09  1  8  1 59 44.0-1.712660305202D-04 5.115907697473D-12 0.000000000000D+00
    4.000000000000D+00-9.718750000000D+00 4.099813630837D-09 2.920343265413D+00
   -4.805624485016D-07 4.464998142794D-03-3.706663846970D-07 5.153562339783D+03
    3.527840000000D+05-1.676380634308D-08-2.044550940393D+00-3.911554813385D-08
    9.887824676729D-01 3.998125000000D+02-2.100426344491D+00-8.185698110040D-09
   -6.464554988949D-11 1.000000000000D+00 1.513000000000D+03 0.000000000000D+00
    2.000000000000D+00 0.000000000000D+00-9.313225746155D-09 4.000000000000D+00
    3.469800000000D+05
 6 09  1  8  1 59 44.0 9.926315397024D-05-1.170974428533D-11 0.000000000000D+00
    2.800000000000D+01 7.218750000000D+00 5.559160132762D-09-1.427931084090D+00
    5.736947059631D-07 5.634475965053D-03 5.854293704033D-06 5.153699119568D+03
    3.527840000000D+05-3.166496753693D-08 1.018103175901D+00 1.210719347000D-07
    9.333680217474D-01 2.538437500000D+02-1.486968756777D+00-8.424636634217D-09
    1.296482575132D-10 1.000000000000D+00 1.513000000000D+03 0.000000000000D+00
    2.000000000000D+00 0.000000000000D+00-4.656612873077D-09 2.800000000000D+01
    3.492600000000D+05
30 09  1  8  1 59 44.0 1.184451393783D-04 2.273736754432D-12 0.000000000000D+00
    6.000000000000D+01-3.762500000000D+01 4.595905723635D-09-1.724525442001D+00
   -1.870095729828D-06 1.116110850126D-02 1.032464206219D-05 5.153654201508D+03
    3.527840000000D+05 2.235174179077D-07-2.621734257184D-02 2.235174179077D-07
    9.510856727644D-01 1.728750000000D+02 1.414357441116D+00-7.764609141423D-09
    5.557374344091D-10 1.000000000000D+00 1.513000000000D+03 0.000000000000D+00
    2.000000000000D+00 0.000000000000D+00-7.916241884232D-09 6.000000000000D+01
    3.499500000000D+05
